[{"OBJECT_NAME":"STARLINK-35787","OBJECT_ID":"2025-288V","EPOCH":"2026-03-09T06:02:08.980512","MEAN_MOTION":15.27565968,"ECCENTRICITY":0.00013355,"INCLINATION":43.0028,"RA_OF_ASC_NODE":25.6444,"ARG_OF_PERICENTER":274.6201,"MEAN_ANOMALY":85.4498,"EPHEMERIS_TYPE":0,"CLASSIFICATION_TYPE":"U","NORAD_CAT_ID":66978,"ELEMENT_SET_NO":999,"REV_AT_EPOCH":1522,"BSTAR":0.00089155583,"MEAN_MOTION_DOT":0.00024342,"MEAN_MOTION_DDOT":0},{"OBJECT_NAME":"TITAN 3C TRANSTAGE DEB","OBJECT_ID":"1965-082PT","EPOCH":"2026-03-09T13:23:41.116128","MEAN_MOTION":15.28908269,"ECCENTRICITY":0.00104371,"INCLINATION":32.0266,"RA_OF_ASC_NODE":255.1391,"ARG_OF_PERICENTER":172.8339,"MEAN_ANOMALY":187.2474,"EPHEMERIS_TYPE":0,"CLASSIFICATION_TYPE":"U","NORAD_CAT_ID":3462,"ELEMENT_SET_NO":999,"REV_AT_EPOCH":24824,"BSTAR":0.0004444037,"MEAN_MOTION_DOT":0.00012939,"MEAN_MOTION_DDOT":0}]
